[{"OBJECT_NAME":"STARLINK-1816","OBJECT_ID":"2020-073AW","EPOCH":"2026-03-10T00:00:02.999808","MEAN_MOTION":15.7373021,"ECCENTRICITY":0.00013796,"INCLINATION":53.0412,"RA_OF_ASC_NODE":197.1696,"ARG_OF_PERICENTER":136.5835,"MEAN_ANOMALY":114.6456,"EPHEMERIS_TYPE":0,"CLASSIFICATION_TYPE":"U","NORAD_CAT_ID":46714,"ELEMENT_SET_NO":999,"REV_AT_EPOCH":597,"BSTAR":0.00068317035,"MEAN_MOTION_DOT":0.00098636,"MEAN_MOTION_DDOT":0},{"OBJECT_NAME":"STARLINK-36590","OBJECT_ID":"2026-016S","EPOCH":"2026-03-09T16:46:18.043680","MEAN_MOTION":15.75198621,"ECCENTRICITY":0.00011452,"INCLINATION":97.283,"RA_OF_ASC_NODE":129.168,"ARG_OF_PERICENTER":81.2324,"MEAN_ANOMALY":278.9071,"EPHEMERIS_TYPE":0,"CLASSIFICATION_TYPE":"U","NORAD_CAT_ID":67577,"ELEMENT_SET_NO":999,"REV_AT_EPOCH":680,"BSTAR":0.0014584978,"MEAN_MOTION_DOT":0.00223281,"MEAN_MOTION_DDOT":0}]
